{
"type": "FeatureCollection",
"name": "district",
"crs": { "type": "name", "properties": { "name": "urn:ogc:def:crs:OGC:1.3:CRS84" } },
"features": [
{ "type": "Feature", "properties": { "shapeName": "Rudraprayag", "shapeISO": "", "shapeID": "76128533B46038384763988", "shapeGroup": "IND", "shapeType": "ADM2", "name": "Rudraprayag", "state": "Uttarakhand", "district_code": "UT_RUD" }, "geometry": { "type": "Polygon", "coordinates": [ [ [ 79.03313, 30.806 ], [ 79.02989, 30.76267 ], [ 79.02059, 30.74628 ], [ 79.01256, 30.74485 ], [ 79.00221, 30.74524 ], [ 79.00522, 30.74045 ], [ 79.00066, 30.73969 ], [ 78.99768, 30.7349 ], [ 78.99767, 30.7302 ], [ 78.99432, 30.72815 ], [ 78.98719, 30.73042 ], [ 78.97459, 30.727 ], [ 78.9633, 30.7316 ], [ 78.95433, 30.72973 ], [ 78.95086, 30.72106 ], [ 78.94657, 30.71758 ], [ 78.93289, 30.71629 ], [ 78.9268, 30.71208 ], [ 78.91874, 30.69765 ], [ 78.91829, 30.69085 ], [ 78.91288, 30.6863 ], [ 78.91479, 30.67234 ], [ 78.91145, 30.66487 ], [ 78.91283, 30.66044 ], [ 78.90822, 30.65073 ], [ 78.90985, 30.6464 ], [ 78.91, 30.63029 ], [ 78.91263, 30.62618 ], [ 78.90602, 30.61898 ], [ 78.90486, 30.61182 ], [ 78.89961, 30.60983 ], [ 78.88882, 30.59949 ], [ 78.89378, 30.5904 ], [ 78.89199, 30.58731 ], [ 78.89191, 30.58233 ], [ 78.88977, 30.58016 ], [ 78.87566, 30.57499 ], [ 78.87342, 30.56852 ], [ 78.86541, 30.56236 ], [ 78.86865, 30.55732 ], [ 78.86531, 30.55129 ], [ 78.86119, 30.54816 ], [ 78.8651, 30.53792 ], [ 78.86458, 30.52617 ], [ 78.87154, 30.51449 ], [ 78.86844, 30.51349 ], [ 78.87101, 30.50913 ], [ 78.86202, 30.49576 ], [ 78.85285, 30.48754 ], [ 78.84694, 30.4867 ], [ 78.84087, 30.48766 ], [ 78.83418, 30.48054 ], [ 78.82369, 30.48082 ], [ 78.84448, 30.46378 ], [ 78.84643, 30.45958 ], [ 78.85308, 30.45264 ], [ 78.84993, 30.4513 ], [ 78.84561, 30.44636 ], [ 78.84861, 30.43389 ], [ 78.84633, 30.42551 ], [ 78.81772, 30.39783 ], [ 78.82865, 30.39086 ], [ 78.83681, 30.38913 ], [ 78.83816, 30.38716 ], [ 78.83701, 30.38052 ], [ 78.8408, 30.37244 ], [ 78.83847, 30.36745 ], [ 78.84047, 30.36015 ], [ 78.83736, 30.35369 ], [ 78.87631, 30.34981 ], [ 78.87382, 30.3271 ], [ 78.8704, 30.31974 ], [ 78.86131, 30.31272 ], [ 78.86042, 30.30958 ], [ 78.86274, 30.30465 ], [ 78.86004, 30.29686 ], [ 78.86816, 30.28712 ], [ 78.87576, 30.28228 ], [ 78.87478, 30.27496 ], [ 78.87897, 30.27114 ], [ 78.88543, 30.26863 ], [ 78.88338, 30.26546 ], [ 78.8955, 30.26221 ], [ 78.89616, 30.2548 ], [ 78.89955, 30.25101 ], [ 78.8991, 30.24683 ], [ 78.90716, 30.23943 ], [ 78.90599, 30.23667 ], [ 78.89886, 30.23399 ], [ 78.90017, 30.23235 ], [ 78.91203, 30.22898 ], [ 78.91199, 30.22361 ], [ 78.91624, 30.21439 ], [ 78.91764, 30.2033 ], [ 78.91651, 30.2016 ], [ 78.9106, 30.20145 ], [ 78.90853, 30.20775 ], [ 78.90209, 30.20784 ], [ 78.90256, 30.20182 ], [ 78.89971, 30.20121 ], [ 78.89493, 30.2036 ], [ 78.8931, 30.20047 ], [ 78.89314, 30.19845 ], [ 78.89966, 30.19411 ], [ 78.90022, 30.19194 ], [ 78.89835, 30.19052 ], [ 78.89317, 30.19078 ], [ 78.89068, 30.18806 ], [ 78.89304, 30.18554 ], [ 78.90087, 30.1847 ], [ 78.90452, 30.18235 ], [ 78.90518, 30.17931 ], [ 78.90324, 30.17226 ], [ 78.9074, 30.16507 ], [ 78.99191, 30.18354 ], [ 79.01789, 30.19673 ], [ 79.02555, 30.19678 ], [ 79.02853, 30.1981 ], [ 79.03793, 30.20585 ], [ 79.03813, 30.20859 ], [ 79.04118, 30.2092 ], [ 79.04326, 30.21148 ], [ 79.04251, 30.21594 ], [ 79.04619, 30.21101 ], [ 79.04992, 30.21035 ], [ 79.05579, 30.21241 ], [ 79.06185, 30.21254 ], [ 79.06386, 30.21117 ], [ 79.07131, 30.21375 ], [ 79.07261, 30.21642 ], [ 79.07749, 30.21662 ], [ 79.08087, 30.21665 ], [ 79.0872, 30.21266 ], [ 79.09211, 30.21289 ], [ 79.08818, 30.21679 ], [ 79.08606, 30.22371 ], [ 79.08469, 30.23253 ], [ 79.08584, 30.24416 ], [ 79.07983, 30.26519 ], [ 79.08185, 30.26623 ], [ 79.083, 30.28102 ], [ 79.08492, 30.28152 ], [ 79.08876, 30.27833 ], [ 79.09046, 30.28017 ], [ 79.09208, 30.2768 ], [ 79.09842, 30.2799 ], [ 79.08744, 30.28902 ], [ 79.08758, 30.29264 ], [ 79.09881, 30.31833 ], [ 79.10187, 30.33366 ], [ 79.10097, 30.34928 ], [ 79.10306, 30.35161 ], [ 79.10179, 30.35363 ], [ 79.10292, 30.35919 ], [ 79.09849, 30.36674 ], [ 79.09808, 30.37773 ], [ 79.10508, 30.38153 ], [ 79.1107, 30.38192 ], [ 79.11438, 30.38474 ], [ 79.11891, 30.38279 ], [ 79.12185, 30.38382 ], [ 79.12531, 30.38303 ], [ 79.12981, 30.37923 ], [ 79.13881, 30.37596 ], [ 79.14209, 30.37548 ], [ 79.14574, 30.3769 ], [ 79.15087, 30.37418 ], [ 79.15911, 30.37928 ], [ 79.16397, 30.37996 ], [ 79.16744, 30.38434 ], [ 79.1677, 30.3944 ], [ 79.16596, 30.39861 ], [ 79.16683, 30.40782 ], [ 79.17449, 30.41164 ], [ 79.17666, 30.42551 ], [ 79.16764, 30.43717 ], [ 79.16825, 30.44268 ], [ 79.17578, 30.44544 ], [ 79.18202, 30.45618 ], [ 79.18841, 30.45874 ], [ 79.18944, 30.46836 ], [ 79.19333, 30.47333 ], [ 79.2092, 30.48258 ], [ 79.21223, 30.48252 ], [ 79.21531, 30.48499 ], [ 79.21952, 30.48434 ], [ 79.22453, 30.48787 ], [ 79.22541, 30.49253 ], [ 79.22853, 30.49519 ], [ 79.22709, 30.50033 ], [ 79.22881, 30.50237 ], [ 79.228, 30.50619 ], [ 79.23029, 30.51279 ], [ 79.22904, 30.51822 ], [ 79.2306, 30.52182 ], [ 79.23994, 30.52938 ], [ 79.24754, 30.53298 ], [ 79.24356, 30.54481 ], [ 79.24863, 30.5494 ], [ 79.24815, 30.55537 ], [ 79.25672, 30.55919 ], [ 79.25858, 30.56241 ], [ 79.26367, 30.56226 ], [ 79.2662, 30.56369 ], [ 79.27471, 30.56252 ], [ 79.277, 30.55983 ], [ 79.28566, 30.55996 ], [ 79.28867, 30.55802 ], [ 79.29707, 30.55715 ], [ 79.30222, 30.56354 ], [ 79.30224, 30.5663 ], [ 79.30922, 30.58015 ], [ 79.30938, 30.58477 ], [ 79.31478, 30.58834 ], [ 79.32409, 30.59161 ], [ 79.33463, 30.5898 ], [ 79.34117, 30.593 ], [ 79.34466, 30.60206 ], [ 79.3495, 30.60347 ], [ 79.35075, 30.60724 ], [ 79.3482, 30.61016 ], [ 79.34978, 30.61273 ], [ 79.34985, 30.61956 ], [ 79.35632, 30.62156 ], [ 79.35835, 30.62811 ], [ 79.35663, 30.63489 ], [ 79.35753, 30.6394 ], [ 79.35495, 30.64416 ], [ 79.35128, 30.64505 ], [ 79.34711, 30.65109 ], [ 79.33322, 30.6548 ], [ 79.33111, 30.66121 ], [ 79.32573, 30.66617 ], [ 79.32198, 30.66545 ], [ 79.31696, 30.66904 ], [ 79.31328, 30.66805 ], [ 79.30914, 30.67034 ], [ 79.30507, 30.67507 ], [ 79.30771, 30.67644 ], [ 79.30793, 30.68017 ], [ 79.30681, 30.68549 ], [ 79.30182, 30.69048 ], [ 79.30267, 30.70285 ], [ 79.29986, 30.70868 ], [ 79.29901, 30.71533 ], [ 79.29677, 30.71875 ], [ 79.28705, 30.71839 ], [ 79.27694, 30.72001 ], [ 79.27017, 30.72055 ], [ 79.26529, 30.71822 ], [ 79.25769, 30.71875 ], [ 79.25532, 30.72393 ], [ 79.25081, 30.72859 ], [ 79.24651, 30.73029 ], [ 79.24429, 30.72912 ], [ 79.20977, 30.73379 ], [ 79.20432, 30.73012 ], [ 79.20151, 30.7298 ], [ 79.19918, 30.73725 ], [ 79.19492, 30.73845 ], [ 79.18468, 30.74634 ], [ 79.1666, 30.75282 ], [ 79.15838, 30.75211 ], [ 79.14413, 30.74399 ], [ 79.141, 30.74636 ], [ 79.13358, 30.75768 ], [ 79.12927, 30.7677 ], [ 79.11131, 30.77396 ], [ 79.0955, 30.77551 ], [ 79.08439, 30.78187 ], [ 79.07448, 30.79713 ], [ 79.06539, 30.80589 ], [ 79.0475, 30.80799 ], [ 79.03313, 30.806 ] ] ] } }
]
}
