{
  "type": "FeatureCollection",
  "name": "candidate_sites",
  "features": [
    {
      "type": "Feature",
      "properties": {
        "id": "SITE_A",
        "name": "Okhimath Plateau North",
        "h_mean": 0.22,
        "slope_mean_deg": 4.0,
        "area_ha": 24.0,
        "p_buildable": 0.72,
        "p_protected": 0.0,
        "capacity": 979,
        "capacity_available": 779,
        "existing_population": 200,
        "f_road": 0.9,
        "f_water": 0.85,
        "f_health": 0.8,
        "source": "EXPERT_SCREENED",
        "hazard_source": "EXPERT_SCREENED",
        "screening_note": "First-order physical screening capacity",
        "screened": true
      },
      "geometry": {
        "type": "Point",
        "coordinates": [
          79.05,
          30.55
        ]
      }
    },
    {
      "type": "Feature",
      "properties": {
        "id": "SITE_B",
        "name": "Guptkashi Ridge East",
        "h_mean": 0.28,
        "slope_mean_deg": 3.3,
        "area_ha": 16.0,
        "p_buildable": 0.68,
        "p_protected": 0.0,
        "capacity": 474,
        "capacity_available": 294,
        "existing_population": 180,
        "f_road": 0.85,
        "f_water": 0.8,
        "f_health": 0.75,
        "source": "EXPERT_SCREENED",
        "hazard_source": "EXPERT_SCREENED",
        "screening_note": "First-order physical screening capacity",
        "screened": true
      },
      "geometry": {
        "type": "Point",
        "coordinates": [
          79.1,
          30.54
        ]
      }
    },
    {
      "type": "Feature",
      "properties": {
        "id": "SITE_C",
        "name": "Phata Valley Bench",
        "h_mean": 0.31,
        "slope_mean_deg": 2.8,
        "area_ha": 10.5,
        "p_buildable": 0.75,
        "p_protected": 0.05,
        "capacity": 279,
        "capacity_available": 159,
        "existing_population": 120,
        "f_road": 0.78,
        "f_water": 0.9,
        "f_health": 0.65,
        "source": "EXPERT_SCREENED",
        "hazard_source": "EXPERT_SCREENED",
        "screening_note": "First-order physical screening capacity",
        "screened": true
      },
      "geometry": {
        "type": "Point",
        "coordinates": [
          79.02,
          30.42
        ]
      }
    },
    {
      "type": "Feature",
      "properties": {
        "id": "SITE_D",
        "name": "Augustmuni Terrace",
        "h_mean": 0.25,
        "slope_mean_deg": 0.9,
        "area_ha": 14.0,
        "p_buildable": 0.7,
        "p_protected": 0.0,
        "capacity": 453,
        "capacity_available": 303,
        "existing_population": 150,
        "f_road": 0.82,
        "f_water": 0.88,
        "f_health": 0.72,
        "source": "EXPERT_SCREENED",
        "hazard_source": "EXPERT_SCREENED",
        "screening_note": "First-order physical screening capacity",
        "screened": true
      },
      "geometry": {
        "type": "Point",
        "coordinates": [
          78.89,
          30.36
        ]
      }
    },
    {
      "type": "Feature",
      "properties": {
        "id": "SITE_E",
        "name": "Srinagar Riverside Flat",
        "h_mean": 0.3,
        "slope_mean_deg": 3.1,
        "area_ha": 18.5,
        "p_buildable": 0.65,
        "p_protected": 0.02,
        "capacity": 618,
        "capacity_available": 398,
        "existing_population": 220,
        "f_road": 0.88,
        "f_water": 0.92,
        "f_health": 0.78,
        "source": "EXPERT_SCREENED",
        "hazard_source": "EXPERT_SCREENED",
        "screening_note": "First-order physical screening capacity",
        "screened": true
      },
      "geometry": {
        "type": "Point",
        "coordinates": [
          78.8,
          30.24
        ]
      }
    },
    {
      "type": "Feature",
      "properties": {
        "id": "SITE_F",
        "name": "Chopta Meadow South",
        "h_mean": 0.27,
        "slope_mean_deg": 1.5,
        "area_ha": 12.0,
        "p_buildable": 0.68,
        "p_protected": 0.08,
        "capacity": 224,
        "capacity_available": 144,
        "existing_population": 80,
        "f_road": 0.72,
        "f_water": 0.8,
        "f_health": 0.6,
        "source": "EXPERT_SCREENED",
        "hazard_source": "EXPERT_SCREENED",
        "screening_note": "First-order physical screening capacity",
        "screened": true
      },
      "geometry": {
        "type": "Point",
        "coordinates": [
          79.2,
          30.68
        ]
      }
    },
    {
      "type": "Feature",
      "properties": {
        "id": "SITE_G",
        "name": "Pipalkoti Foothill",
        "h_mean": 0.29,
        "slope_mean_deg": 3.0,
        "area_ha": 15.5,
        "p_buildable": 0.74,
        "p_protected": 0.0,
        "capacity": 477,
        "capacity_available": 287,
        "existing_population": 190,
        "f_road": 0.86,
        "f_water": 0.82,
        "f_health": 0.7,
        "source": "EXPERT_SCREENED",
        "hazard_source": "EXPERT_SCREENED",
        "screening_note": "First-order physical screening capacity",
        "screened": true
      },
      "geometry": {
        "type": "Point",
        "coordinates": [
          79.33,
          30.38
        ]
      }
    },
    {
      "type": "Feature",
      "properties": {
        "id": "SITE_H",
        "name": "Kalimath Bench West",
        "h_mean": 0.26,
        "slope_mean_deg": 2.8,
        "area_ha": 11.0,
        "p_buildable": 0.71,
        "p_protected": 0.0,
        "capacity": 321,
        "capacity_available": 211,
        "existing_population": 110,
        "f_road": 0.8,
        "f_water": 0.86,
        "f_health": 0.68,
        "source": "EXPERT_SCREENED",
        "hazard_source": "EXPERT_SCREENED",
        "screening_note": "First-order physical screening capacity",
        "screened": true
      },
      "geometry": {
        "type": "Point",
        "coordinates": [
          78.99,
          30.47
        ]
      }
    },
    {
      "type": "Feature",
      "properties": {
        "id": "SITE_I",
        "name": "Joshiyara Plateau",
        "h_mean": 0.24,
        "slope_mean_deg": 2.8,
        "area_ha": 13.5,
        "p_buildable": 0.73,
        "p_protected": 0.0,
        "capacity": 480,
        "capacity_available": 340,
        "existing_population": 140,
        "f_road": 0.84,
        "f_water": 0.87,
        "f_health": 0.74,
        "source": "EXPERT_SCREENED",
        "hazard_source": "EXPERT_SCREENED",
        "screening_note": "First-order physical screening capacity",
        "screened": true
      },
      "geometry": {
        "type": "Point",
        "coordinates": [
          78.96,
          30.27
        ]
      }
    },
    {
      "type": "Feature",
      "properties": {
        "id": "SITE_J",
        "name": "Narayankoti Slope Base",
        "h_mean": 0.33,
        "slope_mean_deg": 4.2,
        "area_ha": 9.5,
        "p_buildable": 0.69,
        "p_protected": 0.0,
        "capacity": 228,
        "capacity_available": 133,
        "existing_population": 95,
        "f_road": 0.79,
        "f_water": 0.84,
        "f_health": 0.66,
        "source": "EXPERT_SCREENED",
        "hazard_source": "EXPERT_SCREENED",
        "screening_note": "First-order physical screening capacity",
        "screened": true
      },
      "geometry": {
        "type": "Point",
        "coordinates": [
          79.04,
          30.48
        ]
      }
    },
    {
      "type": "Feature",
      "properties": {
        "id": "SITE_K",
        "name": "Deoria Riverside",
        "h_mean": 0.32,
        "slope_mean_deg": 2.9,
        "area_ha": 8.5,
        "p_buildable": 0.67,
        "p_protected": 0.03,
        "capacity": 193,
        "capacity_available": 108,
        "existing_population": 85,
        "f_road": 0.77,
        "f_water": 0.88,
        "f_health": 0.64,
        "source": "EXPERT_SCREENED",
        "hazard_source": "EXPERT_SCREENED",
        "screening_note": "First-order physical screening capacity",
        "screened": true
      },
      "geometry": {
        "type": "Point",
        "coordinates": [
          79.11,
          30.44
        ]
      }
    },
    {
      "type": "Feature",
      "properties": {
        "id": "SITE_L",
        "name": "Makku Valley Floor",
        "h_mean": 0.28,
        "slope_mean_deg": 2.2,
        "area_ha": 11.5,
        "p_buildable": 0.7,
        "p_protected": 0.05,
        "capacity": 248,
        "capacity_available": 178,
        "existing_population": 70,
        "f_road": 0.74,
        "f_water": 0.83,
        "f_health": 0.62,
        "source": "EXPERT_SCREENED",
        "hazard_source": "EXPERT_SCREENED",
        "screening_note": "First-order physical screening capacity",
        "screened": true
      },
      "geometry": {
        "type": "Point",
        "coordinates": [
          79.17,
          30.64
        ]
      }
    }
  ]
}