{
  "type": "FeatureCollection",
  "name": "habitations",
  "features": [
    {
      "type": "Feature",
      "properties": {
        "id": "UT_RUD_0001",
        "name": "Ukhimath",
        "block": "Ukhimath",
        "pop": 850,
        "h_ls": 0.2635,
        "h_ff": 0.6867,
        "h": 0.7692,
        "v": 0.5254,
        "p": 0.6717,
        "priority": "Immediate",
        "pct_red": 89.8,
        "zone_class": "Red",
        "source": "EXPERT_SCREENED",
        "hazard_source": "PIPELINE",
        "village_joined": true,
        "explain": [
          {
            "factor": "multi_hazard",
            "value": 0.7692,
            "weight": 0.6,
            "contribution": 0.4615
          },
          {
            "factor": "vulnerability",
            "value": 0.5254,
            "weight": 0.4,
            "contribution": 0.2102
          },
          {
            "factor": "pct_red_override",
            "value": 89.8,
            "weight": 0.0,
            "contribution": 0.0,
            "note": "pct_red >= 40.0% forces Immediate"
          }
        ],
        "vuln_explain": [
          {
            "factor": "population",
            "value": 0.7073,
            "weight": 0.25,
            "contribution": 0.1768
          },
          {
            "factor": "dependents",
            "value": 0.4817,
            "weight": 0.15,
            "contribution": 0.0723
          },
          {
            "factor": "isolation",
            "value": 0.0815,
            "weight": 0.2,
            "contribution": 0.0163
          },
          {
            "factor": "health_access",
            "value": 0.0667,
            "weight": 0.15,
            "contribution": 0.01
          },
          {
            "factor": "historical_exposure",
            "value": 1.0,
            "weight": 0.25,
            "contribution": 0.25
          }
        ],
        "rec_site_id": "SITE_A",
        "rec_score": 0.8202,
        "why_site": [
          "H_site=0.22 (below 0.4 safety filter)",
          "Distance 3.8 km from Ukhimath (proximity score 0.85)",
          "Access: road 0.90, healthcare 0.80, water 0.85, school 0.70",
          "First-order physical screening capacity: 704 available (habitation pop 850)",
          "Capacity meets 0.5\u00d7population threshold (704 \u2265 425)",
          "U_ij suitability score 0.82"
        ]
      },
      "geometry": {
        "type": "Point",
        "coordinates": [
          79.07,
          30.52
        ]
      }
    },
    {
      "type": "Feature",
      "properties": {
        "id": "UT_RUD_0002",
        "name": "Guptkashi",
        "block": "Ukhimath",
        "pop": 620,
        "h_ls": 0.6233,
        "h_ff": 0.5725,
        "h": 0.8389,
        "v": 0.4581,
        "p": 0.6866,
        "priority": "Immediate",
        "pct_red": 73.6,
        "zone_class": "Red",
        "source": "EXPERT_SCREENED",
        "hazard_source": "PIPELINE",
        "village_joined": true,
        "explain": [
          {
            "factor": "multi_hazard",
            "value": 0.8389,
            "weight": 0.6,
            "contribution": 0.5033
          },
          {
            "factor": "vulnerability",
            "value": 0.4581,
            "weight": 0.4,
            "contribution": 0.1833
          },
          {
            "factor": "pct_red_override",
            "value": 73.6,
            "weight": 0.0,
            "contribution": 0.0,
            "note": "pct_red >= 40.0% forces Immediate"
          }
        ],
        "vuln_explain": [
          {
            "factor": "population",
            "value": 0.4829,
            "weight": 0.25,
            "contribution": 0.1207
          },
          {
            "factor": "dependents",
            "value": 0.5827,
            "weight": 0.15,
            "contribution": 0.0874
          },
          {
            "factor": "isolation",
            "value": 0.0,
            "weight": 0.2,
            "contribution": 0.0
          },
          {
            "factor": "health_access",
            "value": 0.0,
            "weight": 0.15,
            "contribution": 0.0
          },
          {
            "factor": "historical_exposure",
            "value": 1.0,
            "weight": 0.25,
            "contribution": 0.25
          }
        ],
        "rec_site_id": "SITE_A",
        "rec_score": 0.8472,
        "why_site": [
          "H_site=0.22 (below 0.4 safety filter)",
          "Distance 3.6 km from Guptkashi (proximity score 0.85)",
          "Access: road 0.90, healthcare 0.80, water 0.85, school 0.70",
          "First-order physical screening capacity: 704 available (habitation pop 620)",
          "Capacity meets 0.5\u00d7population threshold (704 \u2265 310)",
          "U_ij suitability score 0.85"
        ]
      },
      "geometry": {
        "type": "Point",
        "coordinates": [
          79.08,
          30.53
        ]
      }
    },
    {
      "type": "Feature",
      "properties": {
        "id": "UT_RUD_0003",
        "name": "Agastyamuni",
        "block": "Rudraprayag",
        "pop": 420,
        "h_ls": 0.4497,
        "h_ff": 0.6994,
        "h": 0.8346,
        "v": 0.1725,
        "p": 0.5698,
        "priority": "Immediate",
        "pct_red": 100.0,
        "zone_class": "Red",
        "source": "EXPERT_SCREENED",
        "hazard_source": "PIPELINE",
        "village_joined": true,
        "explain": [
          {
            "factor": "multi_hazard",
            "value": 0.8346,
            "weight": 0.6,
            "contribution": 0.5008
          },
          {
            "factor": "vulnerability",
            "value": 0.1725,
            "weight": 0.4,
            "contribution": 0.069
          },
          {
            "factor": "pct_red_override",
            "value": 100.0,
            "weight": 0.0,
            "contribution": 0.0,
            "note": "pct_red >= 40.0% forces Immediate"
          }
        ],
        "vuln_explain": [
          {
            "factor": "population",
            "value": 0.2878,
            "weight": 0.25,
            "contribution": 0.072
          },
          {
            "factor": "dependents",
            "value": 0.6705,
            "weight": 0.15,
            "contribution": 0.1006
          },
          {
            "factor": "isolation",
            "value": 0.0,
            "weight": 0.2,
            "contribution": 0.0
          },
          {
            "factor": "health_access",
            "value": 0.0,
            "weight": 0.15,
            "contribution": 0.0
          },
          {
            "factor": "historical_exposure",
            "value": 0.0,
            "weight": 0.25,
            "contribution": 0.0
          }
        ],
        "rec_site_id": "SITE_A",
        "rec_score": 0.7486,
        "why_site": [
          "H_site=0.22 (below 0.4 safety filter)",
          "Distance 20.1 km from Agastyamuni (proximity score 0.20)",
          "Access: road 0.90, healthcare 0.80, water 0.85, school 0.70",
          "First-order physical screening capacity: 704 available (habitation pop 420)",
          "Capacity meets 0.5\u00d7population threshold (704 \u2265 210)",
          "U_ij suitability score 0.75"
        ]
      },
      "geometry": {
        "type": "Point",
        "coordinates": [
          78.98,
          30.38
        ]
      }
    },
    {
      "type": "Feature",
      "properties": {
        "id": "UT_RUD_0004",
        "name": "Tilwara",
        "block": "Rudraprayag",
        "pop": 310,
        "h_ls": 0.1931,
        "h_ff": 0.7619,
        "h": 0.8079,
        "v": 0.2723,
        "p": 0.5937,
        "priority": "Immediate",
        "pct_red": 100.0,
        "zone_class": "Red",
        "source": "EXPERT_SCREENED",
        "hazard_source": "PIPELINE",
        "village_joined": true,
        "explain": [
          {
            "factor": "multi_hazard",
            "value": 0.8079,
            "weight": 0.6,
            "contribution": 0.4847
          },
          {
            "factor": "vulnerability",
            "value": 0.2723,
            "weight": 0.4,
            "contribution": 0.1089
          },
          {
            "factor": "pct_red_override",
            "value": 100.0,
            "weight": 0.0,
            "contribution": 0.0,
            "note": "pct_red >= 40.0% forces Immediate"
          }
        ],
        "vuln_explain": [
          {
            "factor": "population",
            "value": 0.1805,
            "weight": 0.25,
            "contribution": 0.0451
          },
          {
            "factor": "dependents",
            "value": 0.7188,
            "weight": 0.15,
            "contribution": 0.1078
          },
          {
            "factor": "isolation",
            "value": 0.3698,
            "weight": 0.2,
            "contribution": 0.074
          },
          {
            "factor": "health_access",
            "value": 0.3026,
            "weight": 0.15,
            "contribution": 0.0454
          },
          {
            "factor": "historical_exposure",
            "value": 0.0,
            "weight": 0.25,
            "contribution": 0.0
          }
        ],
        "rec_site_id": "SITE_A",
        "rec_score": 0.719,
        "why_site": [
          "H_site=0.22 (below 0.4 safety filter)",
          "Distance 28.5 km from Tilwara (proximity score 0.00)",
          "Access: road 0.90, healthcare 0.80, water 0.85, school 0.70",
          "First-order physical screening capacity: 704 available (habitation pop 310)",
          "Capacity meets 0.5\u00d7population threshold (704 \u2265 155)",
          "U_ij suitability score 0.72"
        ]
      },
      "geometry": {
        "type": "Point",
        "coordinates": [
          78.92,
          30.32
        ]
      }
    },
    {
      "type": "Feature",
      "properties": {
        "id": "UT_RUD_0005",
        "name": "Rudraprayag Town",
        "block": "Rudraprayag",
        "pop": 1150,
        "h_ls": 0.2321,
        "h_ff": 0.8572,
        "h": 0.8903,
        "v": 0.5525,
        "p": 0.7552,
        "priority": "Immediate",
        "pct_red": 100.0,
        "zone_class": "Red",
        "source": "EXPERT_SCREENED",
        "hazard_source": "PIPELINE",
        "village_joined": true,
        "explain": [
          {
            "factor": "multi_hazard",
            "value": 0.8903,
            "weight": 0.6,
            "contribution": 0.5342
          },
          {
            "factor": "vulnerability",
            "value": 0.5525,
            "weight": 0.4,
            "contribution": 0.221
          },
          {
            "factor": "pct_red_override",
            "value": 100.0,
            "weight": 0.0,
            "contribution": 0.0,
            "note": "pct_red >= 40.0% forces Immediate"
          }
        ],
        "vuln_explain": [
          {
            "factor": "population",
            "value": 1.0,
            "weight": 0.25,
            "contribution": 0.25
          },
          {
            "factor": "dependents",
            "value": 0.35,
            "weight": 0.15,
            "contribution": 0.0525
          },
          {
            "factor": "isolation",
            "value": 0.0,
            "weight": 0.2,
            "contribution": 0.0
          },
          {
            "factor": "health_access",
            "value": 0.0,
            "weight": 0.15,
            "contribution": 0.0
          },
          {
            "factor": "historical_exposure",
            "value": 1.0,
            "weight": 0.25,
            "contribution": 0.25
          }
        ],
        "rec_site_id": "SITE_A",
        "rec_score": 0.6608,
        "why_site": [
          "H_site=0.22 (below 0.4 safety filter)",
          "Distance 29.7 km from Rudraprayag Town (proximity score 0.00)",
          "Access: road 0.90, healthcare 0.80, water 0.85, school 0.70",
          "First-order physical screening capacity: 704 available (habitation pop 1150)",
          "Capacity meets 0.5\u00d7population threshold (704 \u2265 575)",
          "U_ij suitability score 0.66"
        ]
      },
      "geometry": {
        "type": "Point",
        "coordinates": [
          78.98,
          30.29
        ]
      }
    },
    {
      "type": "Feature",
      "properties": {
        "id": "UT_RUD_0006",
        "name": "Gaurikund",
        "block": "Ukhimath",
        "pop": 180,
        "h_ls": 0.507,
        "h_ff": 0.5771,
        "h": 0.7915,
        "v": 0.5192,
        "p": 0.6826,
        "priority": "Immediate",
        "pct_red": 97.1,
        "zone_class": "Red",
        "source": "EXPERT_SCREENED",
        "hazard_source": "PIPELINE",
        "village_joined": true,
        "explain": [
          {
            "factor": "multi_hazard",
            "value": 0.7915,
            "weight": 0.6,
            "contribution": 0.4749
          },
          {
            "factor": "vulnerability",
            "value": 0.5192,
            "weight": 0.4,
            "contribution": 0.2077
          },
          {
            "factor": "pct_red_override",
            "value": 97.1,
            "weight": 0.0,
            "contribution": 0.0,
            "note": "pct_red >= 40.0% forces Immediate"
          }
        ],
        "vuln_explain": [
          {
            "factor": "population",
            "value": 0.0537,
            "weight": 0.25,
            "contribution": 0.0134
          },
          {
            "factor": "dependents",
            "value": 0.8759,
            "weight": 0.15,
            "contribution": 0.1314
          },
          {
            "factor": "isolation",
            "value": 0.6953,
            "weight": 0.2,
            "contribution": 0.1391
          },
          {
            "factor": "health_access",
            "value": 0.5689,
            "weight": 0.15,
            "contribution": 0.0853
          },
          {
            "factor": "historical_exposure",
            "value": 0.6,
            "weight": 0.25,
            "contribution": 0.15
          }
        ],
        "rec_site_id": "SITE_A",
        "rec_score": 0.8129,
        "why_site": [
          "H_site=0.22 (below 0.4 safety filter)",
          "Distance 9.3 km from Gaurikund (proximity score 0.63)",
          "Access: road 0.90, healthcare 0.80, water 0.85, school 0.70",
          "First-order physical screening capacity: 704 available (habitation pop 180)",
          "Capacity meets 0.5\u00d7population threshold (704 \u2265 90)",
          "U_ij suitability score 0.81"
        ]
      },
      "geometry": {
        "type": "Point",
        "coordinates": [
          79.02,
          30.63
        ]
      }
    },
    {
      "type": "Feature",
      "properties": {
        "id": "UT_RUD_0007",
        "name": "Phata",
        "block": "Ukhimath",
        "pop": 240,
        "h_ls": 0.1839,
        "h_ff": 0.5924,
        "h": 0.6674,
        "v": 0.2608,
        "p": 0.5048,
        "priority": "Immediate",
        "pct_red": 40.5,
        "zone_class": "Orange",
        "source": "EXPERT_SCREENED",
        "hazard_source": "PIPELINE",
        "village_joined": true,
        "explain": [
          {
            "factor": "multi_hazard",
            "value": 0.6674,
            "weight": 0.6,
            "contribution": 0.4004
          },
          {
            "factor": "vulnerability",
            "value": 0.2608,
            "weight": 0.4,
            "contribution": 0.1043
          },
          {
            "factor": "pct_red_override",
            "value": 40.5,
            "weight": 0.0,
            "contribution": 0.0,
            "note": "pct_red >= 40.0% forces Immediate"
          }
        ],
        "vuln_explain": [
          {
            "factor": "population",
            "value": 0.1122,
            "weight": 0.25,
            "contribution": 0.028
          },
          {
            "factor": "dependents",
            "value": 0.8495,
            "weight": 0.15,
            "contribution": 0.1274
          },
          {
            "factor": "isolation",
            "value": 0.3263,
            "weight": 0.2,
            "contribution": 0.0653
          },
          {
            "factor": "health_access",
            "value": 0.267,
            "weight": 0.15,
            "contribution": 0.0401
          },
          {
            "factor": "historical_exposure",
            "value": 0.0,
            "weight": 0.25,
            "contribution": 0.0
          }
        ],
        "rec_site_id": "SITE_A",
        "rec_score": 0.7806,
        "why_site": [
          "H_site=0.22 (below 0.4 safety filter)",
          "Distance 14.7 km from Phata (proximity score 0.41)",
          "Access: road 0.90, healthcare 0.80, water 0.85, school 0.70",
          "First-order physical screening capacity: 704 available (habitation pop 240)",
          "Capacity meets 0.5\u00d7population threshold (704 \u2265 120)",
          "U_ij suitability score 0.78"
        ]
      },
      "geometry": {
        "type": "Point",
        "coordinates": [
          79.02,
          30.42
        ]
      }
    },
    {
      "type": "Feature",
      "properties": {
        "id": "UT_RUD_0008",
        "name": "Kalimath",
        "block": "Ukhimath",
        "pop": 390,
        "h_ls": 0.3624,
        "h_ff": 0.7869,
        "h": 0.8641,
        "v": 0.3234,
        "p": 0.6478,
        "priority": "Immediate",
        "pct_red": 98.9,
        "zone_class": "Red",
        "source": "EXPERT_SCREENED",
        "hazard_source": "PIPELINE",
        "village_joined": true,
        "explain": [
          {
            "factor": "multi_hazard",
            "value": 0.8641,
            "weight": 0.6,
            "contribution": 0.5185
          },
          {
            "factor": "vulnerability",
            "value": 0.3234,
            "weight": 0.4,
            "contribution": 0.1294
          },
          {
            "factor": "pct_red_override",
            "value": 98.9,
            "weight": 0.0,
            "contribution": 0.0,
            "note": "pct_red >= 40.0% forces Immediate"
          }
        ],
        "vuln_explain": [
          {
            "factor": "population",
            "value": 0.2585,
            "weight": 0.25,
            "contribution": 0.0646
          },
          {
            "factor": "dependents",
            "value": 0.6837,
            "weight": 0.15,
            "contribution": 0.1026
          },
          {
            "factor": "isolation",
            "value": 0.484,
            "weight": 0.2,
            "contribution": 0.0968
          },
          {
            "factor": "health_access",
            "value": 0.396,
            "weight": 0.15,
            "contribution": 0.0594
          },
          {
            "factor": "historical_exposure",
            "value": 0.0,
            "weight": 0.25,
            "contribution": 0.0
          }
        ],
        "rec_site_id": "SITE_A",
        "rec_score": 0.8169,
        "why_site": [
          "H_site=0.22 (below 0.4 safety filter)",
          "Distance 8.7 km from Kalimath (proximity score 0.65)",
          "Access: road 0.90, healthcare 0.80, water 0.85, school 0.70",
          "First-order physical screening capacity: 704 available (habitation pop 390)",
          "Capacity meets 0.5\u00d7population threshold (704 \u2265 195)",
          "U_ij suitability score 0.82"
        ]
      },
      "geometry": {
        "type": "Point",
        "coordinates": [
          79.01,
          30.48
        ]
      }
    },
    {
      "type": "Feature",
      "properties": {
        "id": "UT_RUD_0009",
        "name": "Narayankoti",
        "block": "Ukhimath",
        "pop": 275,
        "h_ls": 0.2697,
        "h_ff": 0.6247,
        "h": 0.7259,
        "v": 0.2416,
        "p": 0.5322,
        "priority": "Immediate",
        "pct_red": 88.3,
        "zone_class": "Red",
        "source": "EXPERT_SCREENED",
        "hazard_source": "PIPELINE",
        "village_joined": true,
        "explain": [
          {
            "factor": "multi_hazard",
            "value": 0.7259,
            "weight": 0.6,
            "contribution": 0.4355
          },
          {
            "factor": "vulnerability",
            "value": 0.2416,
            "weight": 0.4,
            "contribution": 0.0967
          },
          {
            "factor": "pct_red_override",
            "value": 88.3,
            "weight": 0.0,
            "contribution": 0.0,
            "note": "pct_red >= 40.0% forces Immediate"
          }
        ],
        "vuln_explain": [
          {
            "factor": "population",
            "value": 0.1463,
            "weight": 0.25,
            "contribution": 0.0366
          },
          {
            "factor": "dependents",
            "value": 0.7341,
            "weight": 0.15,
            "contribution": 0.1101
          },
          {
            "factor": "isolation",
            "value": 0.2942,
            "weight": 0.2,
            "contribution": 0.0588
          },
          {
            "factor": "health_access",
            "value": 0.2407,
            "weight": 0.15,
            "contribution": 0.0361
          },
          {
            "factor": "historical_exposure",
            "value": 0.0,
            "weight": 0.25,
            "contribution": 0.0
          }
        ],
        "rec_site_id": "SITE_A",
        "rec_score": 0.829,
        "why_site": [
          "H_site=0.22 (below 0.4 safety filter)",
          "Distance 6.7 km from Narayankoti (proximity score 0.73)",
          "Access: road 0.90, healthcare 0.80, water 0.85, school 0.70",
          "First-order physical screening capacity: 704 available (habitation pop 275)",
          "Capacity meets 0.5\u00d7population threshold (704 \u2265 137)",
          "U_ij suitability score 0.83"
        ]
      },
      "geometry": {
        "type": "Point",
        "coordinates": [
          79.05,
          30.49
        ]
      }
    },
    {
      "type": "Feature",
      "properties": {
        "id": "UT_RUD_0010",
        "name": "Triyuginarayan",
        "block": "Ukhimath",
        "pop": 195,
        "h_ls": 0.4112,
        "h_ff": 0.6985,
        "h": 0.8225,
        "v": 0.521,
        "p": 0.7019,
        "priority": "Immediate",
        "pct_red": 99.9,
        "zone_class": "Red",
        "source": "EXPERT_SCREENED",
        "hazard_source": "PIPELINE",
        "village_joined": true,
        "explain": [
          {
            "factor": "multi_hazard",
            "value": 0.8225,
            "weight": 0.6,
            "contribution": 0.4935
          },
          {
            "factor": "vulnerability",
            "value": 0.521,
            "weight": 0.4,
            "contribution": 0.2084
          },
          {
            "factor": "pct_red_override",
            "value": 99.9,
            "weight": 0.0,
            "contribution": 0.0,
            "note": "pct_red >= 40.0% forces Immediate"
          }
        ],
        "vuln_explain": [
          {
            "factor": "population",
            "value": 0.0683,
            "weight": 0.25,
            "contribution": 0.0171
          },
          {
            "factor": "dependents",
            "value": 0.8693,
            "weight": 0.15,
            "contribution": 0.1304
          },
          {
            "factor": "isolation",
            "value": 0.8863,
            "weight": 0.2,
            "contribution": 0.1773
          },
          {
            "factor": "health_access",
            "value": 0.7252,
            "weight": 0.15,
            "contribution": 0.1088
          },
          {
            "factor": "historical_exposure",
            "value": 0.35,
            "weight": 0.25,
            "contribution": 0.0875
          }
        ],
        "rec_site_id": "SITE_A",
        "rec_score": 0.759,
        "why_site": [
          "H_site=0.22 (below 0.4 safety filter)",
          "Distance 18.3 km from Triyuginarayan (proximity score 0.27)",
          "Access: road 0.90, healthcare 0.80, water 0.85, school 0.70",
          "First-order physical screening capacity: 704 available (habitation pop 195)",
          "Capacity meets 0.5\u00d7population threshold (704 \u2265 97)",
          "U_ij suitability score 0.76"
        ]
      },
      "geometry": {
        "type": "Point",
        "coordinates": [
          79.24,
          30.57
        ]
      }
    },
    {
      "type": "Feature",
      "properties": {
        "id": "UT_RUD_0011",
        "name": "Okhimath",
        "block": "Ukhimath",
        "pop": 520,
        "h_ls": 0.15,
        "h_ff": 0.768,
        "h": 0.8028,
        "v": 0.343,
        "p": 0.6189,
        "priority": "Immediate",
        "pct_red": 90.2,
        "zone_class": "Red",
        "source": "EXPERT_SCREENED",
        "hazard_source": "PIPELINE",
        "village_joined": true,
        "explain": [
          {
            "factor": "multi_hazard",
            "value": 0.8028,
            "weight": 0.6,
            "contribution": 0.4817
          },
          {
            "factor": "vulnerability",
            "value": 0.343,
            "weight": 0.4,
            "contribution": 0.1372
          },
          {
            "factor": "pct_red_override",
            "value": 90.2,
            "weight": 0.0,
            "contribution": 0.0,
            "note": "pct_red >= 40.0% forces Immediate"
          }
        ],
        "vuln_explain": [
          {
            "factor": "population",
            "value": 0.3854,
            "weight": 0.25,
            "contribution": 0.0964
          },
          {
            "factor": "dependents",
            "value": 0.6266,
            "weight": 0.15,
            "contribution": 0.094
          },
          {
            "factor": "isolation",
            "value": 0.2018,
            "weight": 0.2,
            "contribution": 0.0404
          },
          {
            "factor": "health_access",
            "value": 0.1651,
            "weight": 0.15,
            "contribution": 0.0248
          },
          {
            "factor": "historical_exposure",
            "value": 0.35,
            "weight": 0.25,
            "contribution": 0.0875
          }
        ],
        "rec_site_id": "SITE_A",
        "rec_score": 0.869,
        "why_site": [
          "H_site=0.22 (below 0.4 safety filter)",
          "Distance 0.0 km from Okhimath (proximity score 1.00)",
          "Access: road 0.90, healthcare 0.80, water 0.85, school 0.70",
          "First-order physical screening capacity: 704 available (habitation pop 520)",
          "Capacity meets 0.5\u00d7population threshold (704 \u2265 260)",
          "U_ij suitability score 0.87"
        ]
      },
      "geometry": {
        "type": "Point",
        "coordinates": [
          79.05,
          30.55
        ]
      }
    },
    {
      "type": "Feature",
      "properties": {
        "id": "UT_RUD_0012",
        "name": "Chopta",
        "block": "Jakholi",
        "pop": 210,
        "h_ls": 0.3452,
        "h_ff": 0.7611,
        "h": 0.8436,
        "v": 0.5876,
        "p": 0.7412,
        "priority": "Immediate",
        "pct_red": 99.9,
        "zone_class": "Red",
        "source": "EXPERT_SCREENED",
        "hazard_source": "PIPELINE",
        "village_joined": true,
        "explain": [
          {
            "factor": "multi_hazard",
            "value": 0.8436,
            "weight": 0.6,
            "contribution": 0.5062
          },
          {
            "factor": "vulnerability",
            "value": 0.5876,
            "weight": 0.4,
            "contribution": 0.2351
          },
          {
            "factor": "pct_red_override",
            "value": 99.9,
            "weight": 0.0,
            "contribution": 0.0,
            "note": "pct_red >= 40.0% forces Immediate"
          }
        ],
        "vuln_explain": [
          {
            "factor": "population",
            "value": 0.0829,
            "weight": 0.25,
            "contribution": 0.0207
          },
          {
            "factor": "dependents",
            "value": 0.8627,
            "weight": 0.15,
            "contribution": 0.1294
          },
          {
            "factor": "isolation",
            "value": 1.0,
            "weight": 0.2,
            "contribution": 0.2
          },
          {
            "factor": "health_access",
            "value": 1.0,
            "weight": 0.15,
            "contribution": 0.15
          },
          {
            "factor": "historical_exposure",
            "value": 0.35,
            "weight": 0.25,
            "contribution": 0.0875
          }
        ],
        "rec_site_id": "SITE_A",
        "rec_score": 0.7292,
        "why_site": [
          "H_site=0.22 (below 0.4 safety filter)",
          "Distance 23.3 km from Chopta (proximity score 0.07)",
          "Access: road 0.90, healthcare 0.80, water 0.85, school 0.70",
          "First-order physical screening capacity: 704 available (habitation pop 210)",
          "Capacity meets 0.5\u00d7population threshold (704 \u2265 105)",
          "U_ij suitability score 0.73"
        ]
      },
      "geometry": {
        "type": "Point",
        "coordinates": [
          79.22,
          30.7
        ]
      }
    },
    {
      "type": "Feature",
      "properties": {
        "id": "UT_RUD_0013",
        "name": "Makku",
        "block": "Jakholi",
        "pop": 165,
        "h_ls": 0.3861,
        "h_ff": 0.6567,
        "h": 0.7892,
        "v": 0.524,
        "p": 0.6831,
        "priority": "Immediate",
        "pct_red": 96.1,
        "zone_class": "Red",
        "source": "EXPERT_SCREENED",
        "hazard_source": "PIPELINE",
        "village_joined": true,
        "explain": [
          {
            "factor": "multi_hazard",
            "value": 0.7892,
            "weight": 0.6,
            "contribution": 0.4735
          },
          {
            "factor": "vulnerability",
            "value": 0.524,
            "weight": 0.4,
            "contribution": 0.2096
          },
          {
            "factor": "pct_red_override",
            "value": 96.1,
            "weight": 0.0,
            "contribution": 0.0,
            "note": "pct_red >= 40.0% forces Immediate"
          }
        ],
        "vuln_explain": [
          {
            "factor": "population",
            "value": 0.039,
            "weight": 0.25,
            "contribution": 0.0097
          },
          {
            "factor": "dependents",
            "value": 0.8824,
            "weight": 0.15,
            "contribution": 0.1324
          },
          {
            "factor": "isolation",
            "value": 0.9123,
            "weight": 0.2,
            "contribution": 0.1825
          },
          {
            "factor": "health_access",
            "value": 0.7464,
            "weight": 0.15,
            "contribution": 0.112
          },
          {
            "factor": "historical_exposure",
            "value": 0.35,
            "weight": 0.25,
            "contribution": 0.0875
          }
        ],
        "rec_site_id": "SITE_A",
        "rec_score": 0.7689,
        "why_site": [
          "H_site=0.22 (below 0.4 safety filter)",
          "Distance 16.7 km from Makku (proximity score 0.33)",
          "Access: road 0.90, healthcare 0.80, water 0.85, school 0.70",
          "First-order physical screening capacity: 704 available (habitation pop 165)",
          "Capacity meets 0.5\u00d7population threshold (704 \u2265 82)",
          "U_ij suitability score 0.77"
        ]
      },
      "geometry": {
        "type": "Point",
        "coordinates": [
          79.18,
          30.65
        ]
      }
    },
    {
      "type": "Feature",
      "properties": {
        "id": "UT_RUD_0014",
        "name": "Jagula",
        "block": "Jakholi",
        "pop": 145,
        "h_ls": 0.6,
        "h_ff": 0.5695,
        "h": 0.8278,
        "v": 0.4182,
        "p": 0.664,
        "priority": "Immediate",
        "pct_red": 97.2,
        "zone_class": "Red",
        "source": "EXPERT_SCREENED",
        "hazard_source": "PIPELINE",
        "village_joined": true,
        "explain": [
          {
            "factor": "multi_hazard",
            "value": 0.8278,
            "weight": 0.6,
            "contribution": 0.4967
          },
          {
            "factor": "vulnerability",
            "value": 0.4182,
            "weight": 0.4,
            "contribution": 0.1673
          },
          {
            "factor": "pct_red_override",
            "value": 97.2,
            "weight": 0.0,
            "contribution": 0.0,
            "note": "pct_red >= 40.0% forces Immediate"
          }
        ],
        "vuln_explain": [
          {
            "factor": "population",
            "value": 0.0195,
            "weight": 0.25,
            "contribution": 0.0049
          },
          {
            "factor": "dependents",
            "value": 0.8912,
            "weight": 0.15,
            "contribution": 0.1337
          },
          {
            "factor": "isolation",
            "value": 0.5953,
            "weight": 0.2,
            "contribution": 0.1191
          },
          {
            "factor": "health_access",
            "value": 0.4871,
            "weight": 0.15,
            "contribution": 0.0731
          },
          {
            "factor": "historical_exposure",
            "value": 0.35,
            "weight": 0.25,
            "contribution": 0.0875
          }
        ],
        "rec_site_id": "SITE_A",
        "rec_score": 0.8074,
        "why_site": [
          "H_site=0.22 (below 0.4 safety filter)",
          "Distance 10.3 km from Jagula (proximity score 0.59)",
          "Access: road 0.90, healthcare 0.80, water 0.85, school 0.70",
          "First-order physical screening capacity: 704 available (habitation pop 145)",
          "Capacity meets 0.5\u00d7population threshold (704 \u2265 72)",
          "U_ij suitability score 0.81"
        ]
      },
      "geometry": {
        "type": "Point",
        "coordinates": [
          79.12,
          30.62
        ]
      }
    },
    {
      "type": "Feature",
      "properties": {
        "id": "UT_RUD_0015",
        "name": "Augustmuni",
        "block": "Rudraprayag",
        "pop": 580,
        "h_ls": 0.2659,
        "h_ff": 0.7509,
        "h": 0.8171,
        "v": 0.3994,
        "p": 0.65,
        "priority": "Immediate",
        "pct_red": 99.8,
        "zone_class": "Red",
        "source": "EXPERT_SCREENED",
        "hazard_source": "PIPELINE",
        "village_joined": true,
        "explain": [
          {
            "factor": "multi_hazard",
            "value": 0.8171,
            "weight": 0.6,
            "contribution": 0.4903
          },
          {
            "factor": "vulnerability",
            "value": 0.3994,
            "weight": 0.4,
            "contribution": 0.1598
          },
          {
            "factor": "pct_red_override",
            "value": 99.8,
            "weight": 0.0,
            "contribution": 0.0,
            "note": "pct_red >= 40.0% forces Immediate"
          }
        ],
        "vuln_explain": [
          {
            "factor": "population",
            "value": 0.4439,
            "weight": 0.25,
            "contribution": 0.111
          },
          {
            "factor": "dependents",
            "value": 0.6002,
            "weight": 0.15,
            "contribution": 0.09
          },
          {
            "factor": "isolation",
            "value": 0.6149,
            "weight": 0.2,
            "contribution": 0.123
          },
          {
            "factor": "health_access",
            "value": 0.5031,
            "weight": 0.15,
            "contribution": 0.0755
          },
          {
            "factor": "historical_exposure",
            "value": 0.0,
            "weight": 0.25,
            "contribution": 0.0
          }
        ],
        "rec_site_id": "SITE_A",
        "rec_score": 0.719,
        "why_site": [
          "H_site=0.22 (below 0.4 safety filter)",
          "Distance 28.1 km from Augustmuni (proximity score 0.00)",
          "Access: road 0.90, healthcare 0.80, water 0.85, school 0.70",
          "First-order physical screening capacity: 704 available (habitation pop 580)",
          "Capacity meets 0.5\u00d7population threshold (704 \u2265 290)",
          "U_ij suitability score 0.72"
        ]
      },
      "geometry": {
        "type": "Point",
        "coordinates": [
          78.87,
          30.35
        ]
      }
    },
    {
      "type": "Feature",
      "properties": {
        "id": "UT_RUD_0016",
        "name": "Bhiri",
        "block": "Rudraprayag",
        "pop": 325,
        "h_ls": 0.4945,
        "h_ff": 0.7782,
        "h": 0.8879,
        "v": 0.2948,
        "p": 0.6506,
        "priority": "Immediate",
        "pct_red": 99.8,
        "zone_class": "Red",
        "source": "EXPERT_SCREENED",
        "hazard_source": "PIPELINE",
        "village_joined": true,
        "explain": [
          {
            "factor": "multi_hazard",
            "value": 0.8879,
            "weight": 0.6,
            "contribution": 0.5327
          },
          {
            "factor": "vulnerability",
            "value": 0.2948,
            "weight": 0.4,
            "contribution": 0.1179
          },
          {
            "factor": "pct_red_override",
            "value": 99.8,
            "weight": 0.0,
            "contribution": 0.0,
            "note": "pct_red >= 40.0% forces Immediate"
          }
        ],
        "vuln_explain": [
          {
            "factor": "population",
            "value": 0.1951,
            "weight": 0.25,
            "contribution": 0.0488
          },
          {
            "factor": "dependents",
            "value": 0.7122,
            "weight": 0.15,
            "contribution": 0.1068
          },
          {
            "factor": "isolation",
            "value": 0.4312,
            "weight": 0.2,
            "contribution": 0.0862
          },
          {
            "factor": "health_access",
            "value": 0.3528,
            "weight": 0.15,
            "contribution": 0.0529
          },
          {
            "factor": "historical_exposure",
            "value": 0.0,
            "weight": 0.25,
            "contribution": 0.0
          }
        ],
        "rec_site_id": "SITE_A",
        "rec_score": 0.719,
        "why_site": [
          "H_site=0.22 (below 0.4 safety filter)",
          "Distance 33.3 km from Bhiri (proximity score 0.00)",
          "Access: road 0.90, healthcare 0.80, water 0.85, school 0.70",
          "First-order physical screening capacity: 704 available (habitation pop 325)",
          "Capacity meets 0.5\u00d7population threshold (704 \u2265 162)",
          "U_ij suitability score 0.72"
        ]
      },
      "geometry": {
        "type": "Point",
        "coordinates": [
          78.9,
          30.28
        ]
      }
    },
    {
      "type": "Feature",
      "properties": {
        "id": "UT_RUD_0017",
        "name": "Chandrapuri",
        "block": "Rudraprayag",
        "pop": 270,
        "h_ls": 0.5027,
        "h_ff": 0.7621,
        "h": 0.8817,
        "v": 0.3137,
        "p": 0.6545,
        "priority": "Immediate",
        "pct_red": 100.0,
        "zone_class": "Red",
        "source": "EXPERT_SCREENED",
        "hazard_source": "PIPELINE",
        "village_joined": true,
        "explain": [
          {
            "factor": "multi_hazard",
            "value": 0.8817,
            "weight": 0.6,
            "contribution": 0.529
          },
          {
            "factor": "vulnerability",
            "value": 0.3137,
            "weight": 0.4,
            "contribution": 0.1255
          },
          {
            "factor": "pct_red_override",
            "value": 100.0,
            "weight": 0.0,
            "contribution": 0.0,
            "note": "pct_red >= 40.0% forces Immediate"
          }
        ],
        "vuln_explain": [
          {
            "factor": "population",
            "value": 0.1415,
            "weight": 0.25,
            "contribution": 0.0354
          },
          {
            "factor": "dependents",
            "value": 0.7363,
            "weight": 0.15,
            "contribution": 0.1104
          },
          {
            "factor": "isolation",
            "value": 0.3265,
            "weight": 0.2,
            "contribution": 0.0653
          },
          {
            "factor": "health_access",
            "value": 0.2671,
            "weight": 0.15,
            "contribution": 0.0401
          },
          {
            "factor": "historical_exposure",
            "value": 0.25,
            "weight": 0.25,
            "contribution": 0.0625
          }
        ],
        "rec_site_id": "SITE_A",
        "rec_score": 0.719,
        "why_site": [
          "H_site=0.22 (below 0.4 safety filter)",
          "Distance 35.0 km from Chandrapuri (proximity score 0.00)",
          "Access: road 0.90, healthcare 0.80, water 0.85, school 0.70",
          "First-order physical screening capacity: 704 available (habitation pop 270)",
          "Capacity meets 0.5\u00d7population threshold (704 \u2265 135)",
          "U_ij suitability score 0.72"
        ]
      },
      "geometry": {
        "type": "Point",
        "coordinates": [
          78.94,
          30.25
        ]
      }
    },
    {
      "type": "Feature",
      "properties": {
        "id": "UT_RUD_0018",
        "name": "Srinagar",
        "block": "Rudraprayag",
        "pop": 890,
        "h_ls": 0.1501,
        "h_ff": 0.6999,
        "h": 0.7449,
        "v": 0.2562,
        "p": 0.5494,
        "priority": "Immediate",
        "pct_red": 95.3,
        "zone_class": "Red",
        "source": "EXPERT_SCREENED",
        "hazard_source": "PIPELINE",
        "village_joined": true,
        "explain": [
          {
            "factor": "multi_hazard",
            "value": 0.7449,
            "weight": 0.6,
            "contribution": 0.4469
          },
          {
            "factor": "vulnerability",
            "value": 0.2562,
            "weight": 0.4,
            "contribution": 0.1025
          },
          {
            "factor": "pct_red_override",
            "value": 95.3,
            "weight": 0.0,
            "contribution": 0.0,
            "note": "pct_red >= 40.0% forces Immediate"
          }
        ],
        "vuln_explain": [
          {
            "factor": "population",
            "value": 0.7463,
            "weight": 0.25,
            "contribution": 0.1866
          },
          {
            "factor": "dependents",
            "value": 0.4641,
            "weight": 0.15,
            "contribution": 0.0696
          },
          {
            "factor": "isolation",
            "value": 0.0,
            "weight": 0.2,
            "contribution": 0.0
          },
          {
            "factor": "health_access",
            "value": 0.0,
            "weight": 0.15,
            "contribution": 0.0
          },
          {
            "factor": "historical_exposure",
            "value": 0.0,
            "weight": 0.25,
            "contribution": 0.0
          }
        ],
        "rec_site_id": "SITE_A",
        "rec_score": 0.6877,
        "why_site": [
          "H_site=0.22 (below 0.4 safety filter)",
          "Distance 44.9 km from Srinagar (proximity score 0.00)",
          "Access: road 0.90, healthcare 0.80, water 0.85, school 0.70",
          "First-order physical screening capacity: 704 available (habitation pop 890)",
          "Capacity meets 0.5\u00d7population threshold (704 \u2265 445)",
          "U_ij suitability score 0.69"
        ]
      },
      "geometry": {
        "type": "Point",
        "coordinates": [
          78.78,
          30.22
        ]
      }
    },
    {
      "type": "Feature",
      "properties": {
        "id": "UT_RUD_0019",
        "name": "Pipalkoti",
        "block": "Rudraprayag",
        "pop": 410,
        "h_ls": 0.6,
        "h_ff": 0.6479,
        "h": 0.8592,
        "v": 0.5207,
        "p": 0.7238,
        "priority": "Immediate",
        "pct_red": 97.9,
        "zone_class": "Red",
        "source": "EXPERT_SCREENED",
        "hazard_source": "PIPELINE",
        "village_joined": true,
        "explain": [
          {
            "factor": "multi_hazard",
            "value": 0.8592,
            "weight": 0.6,
            "contribution": 0.5155
          },
          {
            "factor": "vulnerability",
            "value": 0.5207,
            "weight": 0.4,
            "contribution": 0.2083
          },
          {
            "factor": "pct_red_override",
            "value": 97.9,
            "weight": 0.0,
            "contribution": 0.0,
            "note": "pct_red >= 40.0% forces Immediate"
          }
        ],
        "vuln_explain": [
          {
            "factor": "population",
            "value": 0.278,
            "weight": 0.25,
            "contribution": 0.0695
          },
          {
            "factor": "dependents",
            "value": 0.6749,
            "weight": 0.15,
            "contribution": 0.1012
          },
          {
            "factor": "isolation",
            "value": 1.0,
            "weight": 0.2,
            "contribution": 0.2
          },
          {
            "factor": "health_access",
            "value": 1.0,
            "weight": 0.15,
            "contribution": 0.15
          },
          {
            "factor": "historical_exposure",
            "value": 0.0,
            "weight": 0.25,
            "contribution": 0.0
          }
        ],
        "rec_site_id": "SITE_A",
        "rec_score": 0.719,
        "why_site": [
          "H_site=0.22 (below 0.4 safety filter)",
          "Distance 33.2 km from Pipalkoti (proximity score 0.00)",
          "Access: road 0.90, healthcare 0.80, water 0.85, school 0.70",
          "First-order physical screening capacity: 704 available (habitation pop 410)",
          "Capacity meets 0.5\u00d7population threshold (704 \u2265 205)",
          "U_ij suitability score 0.72"
        ]
      },
      "geometry": {
        "type": "Point",
        "coordinates": [
          79.35,
          30.4
        ]
      }
    },
    {
      "type": "Feature",
      "properties": {
        "id": "UT_RUD_0020",
        "name": "Khumera",
        "block": "Jakholi",
        "pop": 155,
        "h_ls": 0.6047,
        "h_ff": 0.7768,
        "h": 0.9118,
        "v": 0.384,
        "p": 0.7007,
        "priority": "Immediate",
        "pct_red": 100.0,
        "zone_class": "Red",
        "source": "EXPERT_SCREENED",
        "hazard_source": "PIPELINE",
        "village_joined": true,
        "explain": [
          {
            "factor": "multi_hazard",
            "value": 0.9118,
            "weight": 0.6,
            "contribution": 0.5471
          },
          {
            "factor": "vulnerability",
            "value": 0.384,
            "weight": 0.4,
            "contribution": 0.1536
          },
          {
            "factor": "pct_red_override",
            "value": 100.0,
            "weight": 0.0,
            "contribution": 0.0,
            "note": "pct_red >= 40.0% forces Immediate"
          }
        ],
        "vuln_explain": [
          {
            "factor": "population",
            "value": 0.0293,
            "weight": 0.25,
            "contribution": 0.0073
          },
          {
            "factor": "dependents",
            "value": 0.8868,
            "weight": 0.15,
            "contribution": 0.133
          },
          {
            "factor": "isolation",
            "value": 0.4838,
            "weight": 0.2,
            "contribution": 0.0968
          },
          {
            "factor": "health_access",
            "value": 0.3958,
            "weight": 0.15,
            "contribution": 0.0594
          },
          {
            "factor": "historical_exposure",
            "value": 0.35,
            "weight": 0.25,
            "contribution": 0.0875
          }
        ],
        "rec_site_id": "SITE_A",
        "rec_score": 0.8082,
        "why_site": [
          "H_site=0.22 (below 0.4 safety filter)",
          "Distance 10.1 km from Khumera (proximity score 0.59)",
          "Access: road 0.90, healthcare 0.80, water 0.85, school 0.70",
          "First-order physical screening capacity: 704 available (habitation pop 155)",
          "Capacity meets 0.5\u00d7population threshold (704 \u2265 77)",
          "U_ij suitability score 0.81"
        ]
      },
      "geometry": {
        "type": "Point",
        "coordinates": [
          79.15,
          30.58
        ]
      }
    },
    {
      "type": "Feature",
      "properties": {
        "id": "UT_RUD_0021",
        "name": "Deoria",
        "block": "Ukhimath",
        "pop": 380,
        "h_ls": 0.3722,
        "h_ff": 0.6352,
        "h": 0.771,
        "v": 0.3391,
        "p": 0.5982,
        "priority": "Immediate",
        "pct_red": 97.5,
        "zone_class": "Red",
        "source": "EXPERT_SCREENED",
        "hazard_source": "PIPELINE",
        "village_joined": true,
        "explain": [
          {
            "factor": "multi_hazard",
            "value": 0.771,
            "weight": 0.6,
            "contribution": 0.4626
          },
          {
            "factor": "vulnerability",
            "value": 0.3391,
            "weight": 0.4,
            "contribution": 0.1356
          },
          {
            "factor": "pct_red_override",
            "value": 97.5,
            "weight": 0.0,
            "contribution": 0.0,
            "note": "pct_red >= 40.0% forces Immediate"
          }
        ],
        "vuln_explain": [
          {
            "factor": "population",
            "value": 0.2488,
            "weight": 0.25,
            "contribution": 0.0622
          },
          {
            "factor": "dependents",
            "value": 0.688,
            "weight": 0.15,
            "contribution": 0.1032
          },
          {
            "factor": "isolation",
            "value": 0.5381,
            "weight": 0.2,
            "contribution": 0.1076
          },
          {
            "factor": "health_access",
            "value": 0.4403,
            "weight": 0.15,
            "contribution": 0.066
          },
          {
            "factor": "historical_exposure",
            "value": 0.0,
            "weight": 0.25,
            "contribution": 0.0
          }
        ],
        "rec_site_id": "SITE_A",
        "rec_score": 0.7911,
        "why_site": [
          "H_site=0.22 (below 0.4 safety filter)",
          "Distance 13.0 km from Deoria (proximity score 0.48)",
          "Access: road 0.90, healthcare 0.80, water 0.85, school 0.70",
          "First-order physical screening capacity: 704 available (habitation pop 380)",
          "Capacity meets 0.5\u00d7population threshold (704 \u2265 190)",
          "U_ij suitability score 0.79"
        ]
      },
      "geometry": {
        "type": "Point",
        "coordinates": [
          79.12,
          30.45
        ]
      }
    },
    {
      "type": "Feature",
      "properties": {
        "id": "UT_RUD_0022",
        "name": "Sari",
        "block": "Ukhimath",
        "pop": 125,
        "h_ls": 0.4861,
        "h_ff": 0.6617,
        "h": 0.8261,
        "v": 0.5725,
        "p": 0.7247,
        "priority": "Immediate",
        "pct_red": 93.7,
        "zone_class": "Red",
        "source": "EXPERT_SCREENED",
        "hazard_source": "PIPELINE",
        "village_joined": true,
        "explain": [
          {
            "factor": "multi_hazard",
            "value": 0.8261,
            "weight": 0.6,
            "contribution": 0.4957
          },
          {
            "factor": "vulnerability",
            "value": 0.5725,
            "weight": 0.4,
            "contribution": 0.229
          },
          {
            "factor": "pct_red_override",
            "value": 93.7,
            "weight": 0.0,
            "contribution": 0.0,
            "note": "pct_red >= 40.0% forces Immediate"
          }
        ],
        "vuln_explain": [
          {
            "factor": "population",
            "value": 0.0,
            "weight": 0.25,
            "contribution": 0.0
          },
          {
            "factor": "dependents",
            "value": 0.9,
            "weight": 0.15,
            "contribution": 0.135
          },
          {
            "factor": "isolation",
            "value": 1.0,
            "weight": 0.2,
            "contribution": 0.2
          },
          {
            "factor": "health_access",
            "value": 1.0,
            "weight": 0.15,
            "contribution": 0.15
          },
          {
            "factor": "historical_exposure",
            "value": 0.35,
            "weight": 0.25,
            "contribution": 0.0875
          }
        ],
        "rec_site_id": "SITE_A",
        "rec_score": 0.719,
        "why_site": [
          "H_site=0.22 (below 0.4 safety filter)",
          "Distance 26.3 km from Sari (proximity score 0.00)",
          "Access: road 0.90, healthcare 0.80, water 0.85, school 0.70",
          "First-order physical screening capacity: 704 available (habitation pop 125)",
          "Capacity meets 0.5\u00d7population threshold (704 \u2265 62)",
          "U_ij suitability score 0.72"
        ]
      },
      "geometry": {
        "type": "Point",
        "coordinates": [
          79.28,
          30.68
        ]
      }
    },
    {
      "type": "Feature",
      "properties": {
        "id": "UT_RUD_0023",
        "name": "Toshi",
        "block": "Ukhimath",
        "pop": 200,
        "h_ls": 0.3043,
        "h_ff": 0.6994,
        "h": 0.7908,
        "v": 0.2728,
        "p": 0.5836,
        "priority": "Immediate",
        "pct_red": 93.5,
        "zone_class": "Red",
        "source": "EXPERT_SCREENED",
        "hazard_source": "PIPELINE",
        "village_joined": true,
        "explain": [
          {
            "factor": "multi_hazard",
            "value": 0.7908,
            "weight": 0.6,
            "contribution": 0.4745
          },
          {
            "factor": "vulnerability",
            "value": 0.2728,
            "weight": 0.4,
            "contribution": 0.1091
          },
          {
            "factor": "pct_red_override",
            "value": 93.5,
            "weight": 0.0,
            "contribution": 0.0,
            "note": "pct_red >= 40.0% forces Immediate"
          }
        ],
        "vuln_explain": [
          {
            "factor": "population",
            "value": 0.0732,
            "weight": 0.25,
            "contribution": 0.0183
          },
          {
            "factor": "dependents",
            "value": 0.8671,
            "weight": 0.15,
            "contribution": 0.1301
          },
          {
            "factor": "isolation",
            "value": 0.3856,
            "weight": 0.2,
            "contribution": 0.0771
          },
          {
            "factor": "health_access",
            "value": 0.3155,
            "weight": 0.15,
            "contribution": 0.0473
          },
          {
            "factor": "historical_exposure",
            "value": 0.0,
            "weight": 0.25,
            "contribution": 0.0
          }
        ],
        "rec_site_id": "SITE_A",
        "rec_score": 0.8084,
        "why_site": [
          "H_site=0.22 (below 0.4 safety filter)",
          "Distance 10.1 km from Toshi (proximity score 0.60)",
          "Access: road 0.90, healthcare 0.80, water 0.85, school 0.70",
          "First-order physical screening capacity: 704 available (habitation pop 200)",
          "Capacity meets 0.5\u00d7population threshold (704 \u2265 100)",
          "U_ij suitability score 0.81"
        ]
      },
      "geometry": {
        "type": "Point",
        "coordinates": [
          79.1,
          30.47
        ]
      }
    },
    {
      "type": "Feature",
      "properties": {
        "id": "UT_RUD_0024",
        "name": "Kamleshwar",
        "block": "Rudraprayag",
        "pop": 175,
        "h_ls": 0.4471,
        "h_ff": 0.803,
        "h": 0.8911,
        "v": 0.4063,
        "p": 0.6972,
        "priority": "Immediate",
        "pct_red": 100.0,
        "zone_class": "Red",
        "source": "EXPERT_SCREENED",
        "hazard_source": "PIPELINE",
        "village_joined": true,
        "explain": [
          {
            "factor": "multi_hazard",
            "value": 0.8911,
            "weight": 0.6,
            "contribution": 0.5347
          },
          {
            "factor": "vulnerability",
            "value": 0.4063,
            "weight": 0.4,
            "contribution": 0.1625
          },
          {
            "factor": "pct_red_override",
            "value": 100.0,
            "weight": 0.0,
            "contribution": 0.0,
            "note": "pct_red >= 40.0% forces Immediate"
          }
        ],
        "vuln_explain": [
          {
            "factor": "population",
            "value": 0.0488,
            "weight": 0.25,
            "contribution": 0.0122
          },
          {
            "factor": "dependents",
            "value": 0.878,
            "weight": 0.15,
            "contribution": 0.1317
          },
          {
            "factor": "isolation",
            "value": 0.6195,
            "weight": 0.2,
            "contribution": 0.1239
          },
          {
            "factor": "health_access",
            "value": 0.5068,
            "weight": 0.15,
            "contribution": 0.076
          },
          {
            "factor": "historical_exposure",
            "value": 0.25,
            "weight": 0.25,
            "contribution": 0.0625
          }
        ],
        "rec_site_id": "SITE_A",
        "rec_score": 0.719,
        "why_site": [
          "H_site=0.22 (below 0.4 safety filter)",
          "Distance 33.8 km from Kamleshwar (proximity score 0.00)",
          "Access: road 0.90, healthcare 0.80, water 0.85, school 0.70",
          "First-order physical screening capacity: 704 available (habitation pop 175)",
          "Capacity meets 0.5\u00d7population threshold (704 \u2265 87)",
          "U_ij suitability score 0.72"
        ]
      },
      "geometry": {
        "type": "Point",
        "coordinates": [
          78.85,
          30.3
        ]
      }
    },
    {
      "type": "Feature",
      "properties": {
        "id": "UT_RUD_0025",
        "name": "Joshiyara",
        "block": "Rudraprayag",
        "pop": 340,
        "h_ls": 0.4652,
        "h_ff": 0.7288,
        "h": 0.855,
        "v": 0.336,
        "p": 0.6474,
        "priority": "Immediate",
        "pct_red": 98.4,
        "zone_class": "Red",
        "source": "EXPERT_SCREENED",
        "hazard_source": "PIPELINE",
        "village_joined": true,
        "explain": [
          {
            "factor": "multi_hazard",
            "value": 0.855,
            "weight": 0.6,
            "contribution": 0.513
          },
          {
            "factor": "vulnerability",
            "value": 0.336,
            "weight": 0.4,
            "contribution": 0.1344
          },
          {
            "factor": "pct_red_override",
            "value": 98.4,
            "weight": 0.0,
            "contribution": 0.0,
            "note": "pct_red >= 40.0% forces Immediate"
          }
        ],
        "vuln_explain": [
          {
            "factor": "population",
            "value": 0.2098,
            "weight": 0.25,
            "contribution": 0.0524
          },
          {
            "factor": "dependents",
            "value": 0.7056,
            "weight": 0.15,
            "contribution": 0.1058
          },
          {
            "factor": "isolation",
            "value": 0.1632,
            "weight": 0.2,
            "contribution": 0.0326
          },
          {
            "factor": "health_access",
            "value": 0.1336,
            "weight": 0.15,
            "contribution": 0.02
          },
          {
            "factor": "historical_exposure",
            "value": 0.5,
            "weight": 0.25,
            "contribution": 0.125
          }
        ],
        "rec_site_id": "SITE_A",
        "rec_score": 0.719,
        "why_site": [
          "H_site=0.22 (below 0.4 safety filter)",
          "Distance 32.3 km from Joshiyara (proximity score 0.00)",
          "Access: road 0.90, healthcare 0.80, water 0.85, school 0.70",
          "First-order physical screening capacity: 704 available (habitation pop 340)",
          "Capacity meets 0.5\u00d7population threshold (704 \u2265 170)",
          "U_ij suitability score 0.72"
        ]
      },
      "geometry": {
        "type": "Point",
        "coordinates": [
          78.96,
          30.27
        ]
      }
    }
  ]
}